[{"OBJECT_NAME":"COSMO-SKYMED 3","OBJECT_ID":"2008-054A","EPOCH":"2026-03-09T22:03:15.183936","MEAN_MOTION":15.06259488,"ECCENTRICITY":0.00143526,"INCLINATION":97.8419,"RA_OF_ASC_NODE":285.8111,"ARG_OF_PERICENTER":240.3641,"MEAN_ANOMALY":119.6157,"EPHEMERIS_TYPE":0,"CLASSIFICATION_TYPE":"U","NORAD_CAT_ID":33412,"ELEMENT_SET_NO":999,"REV_AT_EPOCH":94199,"BSTAR":0.00061875413,"MEAN_MOTION_DOT":9.042e-5,"MEAN_MOTION_DDOT":0},{"OBJECT_NAME":"STARLINK-4784","OBJECT_ID":"2022-114X","EPOCH":"2026-03-09T20:36:31.634208","MEAN_MOTION":15.08839081,"ECCENTRICITY":0.00015241,"INCLINATION":53.2195,"RA_OF_ASC_NODE":293.6076,"ARG_OF_PERICENTER":82.9007,"MEAN_ANOMALY":277.2158,"EPHEMERIS_TYPE":0,"CLASSIFICATION_TYPE":"U","NORAD_CAT_ID":53839,"ELEMENT_SET_NO":999,"REV_AT_EPOCH":19299,"BSTAR":-6.769948e-6,"MEAN_MOTION_DOT":-3.96e-6,"MEAN_MOTION_DDOT":0}]
